{
  "type": "FeatureCollection",
  "features": [
    {
      "type": "Feature",
      "properties": {},
      "geometry": {
        "type": "Polygon",
        "coordinates": [
          [
            [74.70007761803113, 13.40363320033765],
            [74.70110758629285, 13.390273987435787],
            [74.69973429527722, 13.368563685192456],
            [74.7035108455702, 13.35286424846413],
            [74.71346720543347, 13.347519526326339],
            [74.7199903377577, 13.334825337218875],
            [74.73955973473035, 13.308432653160562],
            [74.76736887779676, 13.337497853506033],
            [74.77148875084363, 13.35152807902239],
            [74.75981577721082, 13.365891512804643],
            [74.7536359676405, 13.37624601581037],
            [74.74367960777722, 13.378250061781266],
            [74.72988796581055, 13.402029292879904],
            [74.71272182811524, 13.40236326592321],
            [74.69761562694336, 13.412382241481932],
            [74.70007761803113, 13.40363320033765]
          ]
        ]
      }
    }
  ]
}
