{
  "type": "FeatureCollection",
  "features": [
    {
      "type": "Feature",
      "properties": {
        "name": "Udupi Study Area",
        "description": "Area of Interest for UHI Analysis (2016-2025)"
      },
      "geometry": {
        "type": "Polygon",
        "coordinates": [
          [
            [74.69860463218855, 13.408736601753981],
            [74.69929127769636, 13.398383496147572],
            [74.69757466392683, 13.387361958555523],
            [74.69723134117292, 13.378343961539015],
            [74.69929127769636, 13.362979189216357],
            [74.69997792320417, 13.348615582071892],
            [74.71439747886824, 13.343270765893052],
            [74.71611409263777, 13.336255515193777],
            [74.71954732017683, 13.32656745330049],
            [74.72229390220808, 13.316544911950212],
            [74.72572712974714, 13.291820869569154],
            [74.73534016685652, 13.294827982423714],
            [74.74117665367292, 13.302178545720778],
            [74.75353627281355, 13.301176209306],
            [74.75902943687605, 13.305185530089327],
            [74.76417927818464, 13.2985032919339],
            [74.77962880211042, 13.299505639402659],
            [74.79542164879011, 13.301176209306],
            [74.80297474937605, 13.30618784991927],
            [74.80675129966902, 13.318215364335314],
            [74.80125813560652, 13.332246709078571],
            [74.79851155357527, 13.342268599692334],
            [74.8057213314073, 13.356632584503306],
            [74.80228810386824, 13.369659645344068],
            [74.79782490806745, 13.375337887503358],
            [74.78855519371199, 13.371329730453931],
            [74.77962880211042, 13.37400184256045],
            [74.77653889732527, 13.37867796744992],
            [74.76932911949324, 13.378343961539015],
            [74.76005940513777, 13.380681993189956],
            [74.74872975425886, 13.380681993189956],
            [74.74495320396589, 13.384689994646441],
            [74.73877339439558, 13.398383496147572],
            [74.72744374351667, 13.406732809656944],
            [74.71920399742292, 13.409738491537857],
            [74.71062092857527, 13.411408298562332],
            [74.69826130943464, 13.413412051674802],
            [74.69860463218855, 13.408736601753981]
          ]
        ]
      }
    }
  ]
}
